start=new Date('2021-10-05T00:00:00.000Z').valueOf();
sats=[{"RCS_SIZE":"LARGE","SEMIMAJOR_AXIS":"6925.361","TIME_SYSTEM":"UTC","APOAPSIS":"548.535","LAUNCH_DATE":"2021-01-20","PERIAPSIS":"545.917","ECCENTRICITY":"0.00018900","REV_AT_EPOCH":"3934","MEAN_ELEMENT_THEORY":"SGP4","GP_ID":"186226776","MEAN_MOTION_DOT":"0.00001674","NORAD_CAT_ID":"47357","TLE_LINE2":"2 47357  53.0559 119.9663 0001890  86.6713 273.4493 15.06395862 39345","PERIOD":"95.592","ARG_OF_PERICENTER":"86.6713","MEAN_MOTION":"15.06395862","CLASSIFICATION_TYPE":"U","RA_OF_ASC_NODE":"119.9663","REF_FRAME":"TEME","OBJECT_TYPE":"PAYLOAD","MEAN_MOTION_DDOT":"0.0000000000000","FILE":"3144803","BSTAR":"0.00013127000000","COUNTRY_CODE":"US","EPOCH":"2021-10-04T20:04:59.996928","MEAN_ANOMALY":"273.4493","OBJECT_NAME":"STARLINK-2050","DECAY_DATE":null,"CENTER_NAME":"EARTH","ELEMENT_SET_NO":"999","EPHEMERIS_TYPE":"0","SITE":"AFETR","OBJECT_ID":"2021-005J","INCLINATION":"53.0559","TLE_LINE1":"1 47357U 21005J   21277.83680552  .00001674  00000-0  13127-3 0  9995"},{"PERIAPSIS":"546.003","LAUNCH_DATE":"2021-01-20","ECCENTRICITY":"0.00017570","APOAPSIS":"548.436","TIME_SYSTEM":"UTC","SEMIMAJOR_AXIS":"6925.354","RCS_SIZE":"LARGE","MEAN_MOTION_DDOT":"0.0000000000000","OBJECT_TYPE":"PAYLOAD","RA_OF_ASC_NODE":"90.2335","REF_FRAME":"TEME","ARG_OF_PERICENTER":"92.6400","MEAN_MOTION":"15.06398122","CLASSIFICATION_TYPE":"U","NORAD_CAT_ID":"47358","TLE_LINE2":"2 47358  53.0549  90.2335 0001757  92.6400 267.4790 15.06398122 39754","PERIOD":"95.592","GP_ID":"186225527","MEAN_MOTION_DOT":"0.00000238","MEAN_ELEMENT_THEORY":"SGP4","REV_AT_EPOCH":"3975","DECAY_DATE":null,"OBJECT_NAME":"STARLINK-2055","MEAN_ANOMALY":"267.4790","EPOCH":"2021-10-04T18:33:27.029664","COUNTRY_CODE":"US","BSTAR":"0.00003490500000","FILE":"3144803","TLE_LINE1":"1 47358U 21005K   21277.77322951  .00000238  00000-0  34905-4 0  9998","OBJECT_ID":"2021-005K","INCLINATION":"53.0549","SITE":"AFETR","EPHEMERIS_TYPE":"0","ELEMENT_SET_NO":"999","CENTER_NAME":"EARTH"},{"ELEMENT_SET_NO":"999","CENTER_NAME":"EARTH","TLE_LINE1":"1 47359U 21005L   21277.85017922 -.00000656  00000-0 -25157-4 0  9992","INCLINATION":"53.0558","OBJECT_ID":"2021-005L","SITE":"AFETR","EPHEMERIS_TYPE":"0","COUNTRY_CODE":"US","BSTAR":"-0.00002515700000","FILE":"3144803","OBJECT_NAME":"STARLINK-2069","DECAY_DATE":null,"MEAN_ANOMALY":"272.9550","EPOCH":"2021-10-04T20:24:15.484608","PERIOD":"95.593","TLE_LINE2":"2 47359  53.0558 114.8977 0002035  87.1672 272.9550 15.06389915 39418","NORAD_CAT_ID":"47359","MEAN_MOTION_DOT":"-0.00000656","GP_ID":"186225278","MEAN_ELEMENT_THEORY":"SGP4","REV_AT_EPOCH":"3941","MEAN_MOTION_DDOT":"0.0000000000000","OBJECT_TYPE":"PAYLOAD","REF_FRAME":"TEME","RA_OF_ASC_NODE":"114.8977","CLASSIFICATION_TYPE":"U","MEAN_MOTION":"15.06389915","ARG_OF_PERICENTER":"87.1672","SEMIMAJOR_AXIS":"6925.379","RCS_SIZE":"LARGE","LAUNCH_DATE":"2021-01-20","PERIAPSIS":"545.835","ECCENTRICITY":"0.00020350","APOAPSIS":"548.654","TIME_SYSTEM":"UTC"},{"ELEMENT_SET_NO":"999","CENTER_NAME":"EARTH","TLE_LINE1":"1 47360U 21005M   21277.85661749  .00001974  00000-0  15138-3 0  9995","EPHEMERIS_TYPE":"0","SITE":"AFETR","INCLINATION":"53.0570","OBJECT_ID":"2021-005M","COUNTRY_CODE":"US","FILE":"3144803","BSTAR":"0.00015138000000","MEAN_ANOMALY":"275.3010","DECAY_DATE":null,"OBJECT_NAME":"STARLINK-2070","EPOCH":"2021-10-04T20:33:31.751136","MEAN_MOTION_DOT":"0.00001974","GP_ID":"186226529","PERIOD":"95.592","TLE_LINE2":"2 47360  53.0570  84.8662 0002296  84.8241 275.3010 15.06399758 39847","NORAD_CAT_ID":"47360","MEAN_ELEMENT_THEORY":"SGP4","REV_AT_EPOCH":"3984","OBJECT_TYPE":"PAYLOAD","MEAN_MOTION_DDOT":"0.0000000000000","CLASSIFICATION_TYPE":"U","MEAN_MOTION":"15.06399758","ARG_OF_PERICENTER":"84.8241","REF_FRAME":"TEME","RA_OF_ASC_NODE":"84.8662","SEMIMAJOR_AXIS":"6925.349","RCS_SIZE":"LARGE","PERIAPSIS":"545.624","LAUNCH_DATE":"2021-01-20","ECCENTRICITY":"0.00022960","TIME_SYSTEM":"UTC","APOAPSIS":"548.804"},{"MEAN_ELEMENT_THEORY":"SGP4","REV_AT_EPOCH":"3975","NORAD_CAT_ID":"47361","PERIOD":"95.593","TLE_LINE2":"2 47361  53.0533  90.1952 0001996  73.6240 286.4969 15.06383631 39759","GP_ID":"186226277","MEAN_MOTION_DOT":"-0.00000588","RA_OF_ASC_NODE":"90.1952","REF_FRAME":"TEME","ARG_OF_PERICENTER":"73.6240","MEAN_MOTION":"15.06383631","CLASSIFICATION_TYPE":"U","MEAN_MOTION_DDOT":"0.0000000000000","OBJECT_TYPE":"PAYLOAD","RCS_SIZE":"LARGE","SEMIMAJOR_AXIS":"6925.399","APOAPSIS":"548.646","TIME_SYSTEM":"UTC","LAUNCH_DATE":"2021-01-20","PERIAPSIS":"545.881","ECCENTRICITY":"0.00019960","CENTER_NAME":"EARTH","ELEMENT_SET_NO":"999","OBJECT_ID":"2021-005N","INCLINATION":"53.0533","SITE":"AFETR","EPHEMERIS_TYPE":"0","TLE_LINE1":"1 47361U 21005N   21277.78060669 -.00000588  00000-0 -20557-4 0  9996","BSTAR":"-0.00002055700000","FILE":"3144803","COUNTRY_CODE":"US","EPOCH":"2021-10-04T18:44:04.418016","OBJECT_NAME":"STARLINK-2071","DECAY_DATE":null,"MEAN_ANOMALY":"286.4969"},{"EPOCH":"2021-10-04T19:49:04.651392","MEAN_ANOMALY":"274.8715","DECAY_DATE":null,"OBJECT_NAME":"STARLINK-2076","FILE":"3144803","BSTAR":"0.00003348300000","COUNTRY_CODE":"US","SITE":"AFETR","EPHEMERIS_TYPE":"0","INCLINATION":"53.0534","OBJECT_ID":"2021-005P","TLE_LINE1":"1 47362U 21005P   21277.82574828  .00000217  00000-0  33483-4 0  9998","CENTER_NAME":"EARTH","ELEMENT_SET_NO":"999","TIME_SYSTEM":"UTC","APOAPSIS":"548.520","LAUNCH_DATE":"2021-01-20","ECCENTRICITY":"0.00018750","PERIAPSIS":"545.923","RCS_SIZE":"LARGE","SEMIMAJOR_AXIS":"6925.357","CLASSIFICATION_TYPE":"U","MEAN_MOTION":"15.06397310","ARG_OF_PERICENTER":"85.2488","REF_FRAME":"TEME","RA_OF_ASC_NODE":"120.0117","OBJECT_TYPE":"PAYLOAD","MEAN_MOTION_DDOT":"0.0000000000000","MEAN_ELEMENT_THEORY":"SGP4","REV_AT_EPOCH":"3934","MEAN_MOTION_DOT":"0.00000217","GP_ID":"186225028","TLE_LINE2":"2 47362  53.0534 120.0117 0001875  85.2488 274.8715 15.06397310 39340","PERIOD":"95.592","NORAD_CAT_ID":"47362"},{"RCS_SIZE":"LARGE","SEMIMAJOR_AXIS":"6925.372","APOAPSIS":"548.332","TIME_SYSTEM":"UTC","ECCENTRICITY":"0.00015810","LAUNCH_DATE":"2021-01-20","PERIAPSIS":"546.143","REV_AT_EPOCH":"3934","MEAN_ELEMENT_THEORY":"SGP4","NORAD_CAT_ID":"47363","TLE_LINE2":"2 47363  53.0533 119.9906 0001581  83.2788 276.8381 15.06392209 39341","PERIOD":"95.593","GP_ID":"186225778","MEAN_MOTION_DOT":"0.00000156","RA_OF_ASC_NODE":"119.9906","REF_FRAME":"TEME","MEAN_MOTION":"15.06392209","ARG_OF_PERICENTER":"83.2788","CLASSIFICATION_TYPE":"U","MEAN_MOTION_DDOT":"0.0000000000000","OBJECT_TYPE":"PAYLOAD","BSTAR":"0.00002936500000","FILE":"3144803","COUNTRY_CODE":"US","EPOCH":"2021-10-04T19:54:23.897664","OBJECT_NAME":"STARLINK-2077","DECAY_DATE":null,"MEAN_ANOMALY":"276.8381","CENTER_NAME":"EARTH","ELEMENT_SET_NO":"999","OBJECT_ID":"2021-005Q","INCLINATION":"53.0533","EPHEMERIS_TYPE":"0","SITE":"AFETR","TLE_LINE1":"1 47363U 21005Q   21277.82944326  .00000156  00000-0  29365-4 0  9999"},{"MEAN_ELEMENT_THEORY":"SGP4","REV_AT_EPOCH":"3934","NORAD_CAT_ID":"47364","PERIOD":"95.593","TLE_LINE2":"2 47364  53.0544 119.8267 0002157  87.2657 272.8579 15.06392450 39345","GP_ID":"186226030","MEAN_MOTION_DOT":"-0.00001408","RA_OF_ASC_NODE":"119.8267","REF_FRAME":"TEME","ARG_OF_PERICENTER":"87.2657","MEAN_MOTION":"15.06392450","CLASSIFICATION_TYPE":"U","MEAN_MOTION_DDOT":"0.0000000000000","OBJECT_TYPE":"PAYLOAD","RCS_SIZE":"LARGE","SEMIMAJOR_AXIS":"6925.372","APOAPSIS":"548.731","TIME_SYSTEM":"UTC","PERIAPSIS":"545.743","LAUNCH_DATE":"2021-01-20","ECCENTRICITY":"0.00021570","CENTER_NAME":"EARTH","ELEMENT_SET_NO":"999","OBJECT_ID":"2021-005R","INCLINATION":"53.0544","EPHEMERIS_TYPE":"0","SITE":"AFETR","TLE_LINE1":"1 47364U 21005R   21277.86260829 -.00001408  00000-0 -75651-4 0  9995","BSTAR":"-0.00007565100000","FILE":"3144803","COUNTRY_CODE":"US","EPOCH":"2021-10-04T20:42:09.356256","DECAY_DATE":null,"OBJECT_NAME":"STARLINK-2079","MEAN_ANOMALY":"272.8579"},{"BSTAR":"0.00013637000000","FILE":"3144803","COUNTRY_CODE":"US","EPOCH":"2021-10-04T18:25:20.582976","DECAY_DATE":null,"OBJECT_NAME":"STARLINK-2080","MEAN_ANOMALY":"358.4549","CENTER_NAME":"EARTH","ELEMENT_SET_NO":"999","INCLINATION":"53.0516","OBJECT_ID":"2021-005S","SITE":"AFETR","EPHEMERIS_TYPE":"0","TLE_LINE1":"1 47365U 21005S   21277.76759934  .00018581  00000-0  13637-3 0  9998","RCS_SIZE":"LARGE","SEMIMAJOR_AXIS":"6727.850","APOAPSIS":"352.606","TIME_SYSTEM":"UTC","ECCENTRICITY":"0.00042970","LAUNCH_DATE":"2021-01-20","PERIAPSIS":"346.824","MEAN_ELEMENT_THEORY":"SGP4","REV_AT_EPOCH":"4066","TLE_LINE2":"2 47365  53.0516  25.4191 0004297   1.6483 358.4549 15.73215807 40666","PERIOD":"91.532","NORAD_CAT_ID":"47365","MEAN_MOTION_DOT":"0.00018581","GP_ID":"186226777","REF_FRAME":"TEME","RA_OF_ASC_NODE":"25.4191","CLASSIFICATION_TYPE":"U","MEAN_MOTION":"15.73215807","ARG_OF_PERICENTER":"1.6483","MEAN_MOTION_DDOT":"0.0000000000000","OBJECT_TYPE":"PAYLOAD"},{"MEAN_MOTION_DDOT":"0.0000000000000","OBJECT_TYPE":"PAYLOAD","REF_FRAME":"TEME","RA_OF_ASC_NODE":"119.8639","CLASSIFICATION_TYPE":"U","MEAN_MOTION":"15.06396247","ARG_OF_PERICENTER":"82.2608","TLE_LINE2":"2 47366  53.0554 119.8639 0001995  82.2608 277.8607 15.06396247 39346","PERIOD":"95.592","NORAD_CAT_ID":"47366","MEAN_MOTION_DOT":"0.00000377","GP_ID":"186225528","MEAN_ELEMENT_THEORY":"SGP4","REV_AT_EPOCH":"3934","PERIAPSIS":"545.843","LAUNCH_DATE":"2021-01-20","ECCENTRICITY":"0.00019950","APOAPSIS":"548.607","TIME_SYSTEM":"UTC","SEMIMAJOR_AXIS":"6925.360","RCS_SIZE":"LARGE","TLE_LINE1":"1 47366U 21005T   21277.85523429  .00000377  00000-0  44204-4 0  9996","INCLINATION":"53.0554","OBJECT_ID":"2021-005T","EPHEMERIS_TYPE":"0","SITE":"AFETR","ELEMENT_SET_NO":"999","CENTER_NAME":"EARTH","DECAY_DATE":null,"OBJECT_NAME":"STARLINK-2081","MEAN_ANOMALY":"277.8607","EPOCH":"2021-10-04T20:31:32.242656","COUNTRY_CODE":"US","BSTAR":"0.00004420400000","FILE":"3144803"}];
